1 37673U 11024A   13331.14271598  .00000570  00000-0  97827-4 0  9991
2 37673 098.0119 336.2529 0001336 108.1612 295.6236 14.72366452132502